#aV2013  5 10  0  0  0.00000000     288 DD+AD WGS84 FIT  NGA
## 1739 432000.00000000   300.00000000 56422 0.0000000000000
+   30     1  2  3  4  5  6  7  8  9 10 11 12 13 14 15 16 17
+         18 19 20 21 22 23 24 25 26 28 29 31 32  0  0  0  0
+          0  0  0  0  0  0  0  0  0  0  0  0  0  0  0  0  0
+          0  0  0  0  0  0  0  0  0  0  0  0  0  0  0  0  0
+          0  0  0  0  0  0  0  0  0  0  0  0  0  0  0  0  0
++         2  2  2  2  2  2  2  2  2  2  2  2  2  2  2  2  2
++         2  2  2  2  2  2  2  2  2  2  2  2  2  2  2  0  0
++         0  0  0  0  0  0  0  0  0  0  0  0  0  0  0  0  0
++         0  0  0  0  0  0  0  0  0  0  0  0  0  0  0  0  0
++         0  0  0  0  0  0  0  0  0  0  0  0  0  0  0  0  0
%c cc cc ccc ccc cccc cccc cccc cccc ccccc ccccc ccccc ccccc
%c cc cc ccc ccc cccc cccc cccc cccc ccccc ccccc ccccc ccccc
%f  0.0000000  0.000000000  0.00000000000  0.000000000000000
%f  0.0000000  0.000000000  0.00000000000  0.000000000000000
%i    0    0    0    0      0      0      0      0         0
%i    0    0    0    0      0      0      0      0         0
/*      NGA, ST. LOUIS,MO.                                  
/*   EPHEMERIS COMPUTED FROM  1 DAYS OF DATA
/*   EPOCHA SMOOTHER  
/* CCCCCCCCCCCCCCCCCCCCCCCCCCCCCCCCCCCCCCCCCCCCCCCCCCCCCCCCC
*  2013  5 10 19 45  0.00000000                                                 
P  1  -9577.806186 -13750.062697 -20641.638457     24.709873                    
V  1  26010.847710  -2903.655096 -10058.424098      0.039947                    
P  2 -15226.630550  13834.782195  16721.562618    431.496228                    
V  2 -21255.593467   -357.628139 -19809.649372      0.018541                    
P  3   8194.444893 -25115.724647    496.008430    205.098062                    
V  3   3322.349141   2330.400686  31293.117644      0.049497                    
P  4 -24537.574431   7378.074659   7243.371928    214.293964                    
V  4  -9757.507904  -2373.256728 -29214.561642      0.104744                    
P  5  -3745.127352  18279.276786  18820.787858   -394.232300                    
V  5 -15025.701544 -18839.722255  15423.657846     -0.010533                    
P  6  13587.136846 -21748.794280   6213.636332    237.840880                    
V  6    409.435924   8658.844294  30186.681252     -0.162427                    
P  7 -23115.627510  -6562.900624  11680.641983    212.301043                    
V  7  14508.003689  -2635.261696  27035.772643      0.042396                    
P  8 -26775.835538  -1930.792888   1668.458833      6.094670                    
V  8   1979.124963  -1056.098496  32065.567994      0.002429                    
P  9 -21698.174931   9962.108981 -12242.262084    239.985840                    
V  9 -14704.698080   -343.672770  26943.043092      0.024460                    
P 10 -16331.179756   2358.157854  20595.747728    -79.376443                    
V 10 -14202.294552 -22737.716729  -8127.813096     -0.013082                    
P 11  -2737.680523 -16964.474482 -20664.089449   -380.570429                    
V 11  24159.660972  -8631.728914   4249.214077     -0.036431                    
P 12  10236.466108  23792.088221  -6399.755463    133.056371                    
V 12  -5853.282166  -5765.665782 -30758.505314      0.020704                    
P 13 -10239.370264 -11088.401351  21699.859124    120.511321                    
V 13  14765.361086 -23615.185574  -5190.411573     -0.035862                    
P 14  18173.112488  -8517.276516 -17124.585215    220.947378                    
V 14  -9490.386496  20082.056524 -19975.263782     -0.001222                    
P 15  -1346.970379  23792.326618 -11488.258236   -118.596759                    
V 15  -8749.223167  12181.644343  26574.477736     -0.015071                    
P 16   4705.253260 -17137.741662  19599.357670   -252.180213                    
V 16  14077.231264  20669.832831  15010.676025      0.002091                    
P 17 -17991.765266   8723.592539 -17144.818704     20.859961                    
V 17   8724.183659 -20581.903328 -19608.661833     -0.039164                    
P 18  19850.544182  12472.434003 -12403.950752    253.022053                    
V 18   6797.320921  15153.002790  24937.099211      0.019305                    
P 19   6655.886829 -23801.051762  -9219.280132   -371.848348                    
V 19   8410.120450  -8631.435893  29041.750982     -0.030639                    
P 20 -14067.245617 -22355.400624  -3316.535282     97.334908                    
V 20   5389.756276    920.290215 -30600.267783      0.019901                    
P 21  25198.491516   4444.698451   8636.544073   -296.759940                    
V 21  -9834.749576   3685.097275  28172.363246     -0.021316                    
P 22  18079.713479    717.399074 -19293.313998    167.312626                    
V 22  12818.573273  21524.800876  12540.614110      0.013748                    
P 23  -4784.260639 -18923.566080  17895.226790     87.059830                    
V 23  11722.417562 -19594.946793 -18042.805625     -0.036119                    
P 24   5428.906675  14664.360277 -21485.294379     -6.082851                    
V 24 -27114.964814   2802.944801  -4900.378285     -0.007202                    
P 25  17201.314980  19905.078228   3987.445086     96.246867                    
V 25   1026.496580   5508.577505 -31427.355739      0.041465                    
P 26 -12721.585208  23093.819228  -1299.005816      7.071779                    
V 26  -2603.593677   -520.787466  32330.109417      0.152984                    
P 28 -17874.504596  -6109.914754 -18166.014113    257.409919                    
V 28 -11505.377969 -21268.896732  17738.765132      0.033963                    
P 29  10499.107295  11775.439973  21426.922159    434.362904                    
V 29 -13242.942293  23601.922085  -6450.983548      0.036129                    
P 31  23870.931972  -7613.103743   9396.850675    313.864816                    
V 31  11656.909739   1104.334933 -28975.451653      0.014147                    
P 32  -5877.939211 -24281.023717  -9613.534645   -555.294881                    
V 32   8193.314336   9436.792828 -27931.986985     -0.019341                    
EOF
